[{"OBJECT_NAME":"STARLINK-4621","OBJECT_ID":"2022-105AE","EPOCH":"2026-03-09T16:00:46.917216","MEAN_MOTION":15.01252403,"ECCENTRICITY":0.00033108,"INCLINATION":97.601,"RA_OF_ASC_NODE":310.1897,"ARG_OF_PERICENTER":33.3535,"MEAN_ANOMALY":326.7897,"EPHEMERIS_TYPE":0,"CLASSIFICATION_TYPE":"U","NORAD_CAT_ID":53676,"ELEMENT_SET_NO":999,"REV_AT_EPOCH":19323,"BSTAR":-7.6560656e-5,"MEAN_MOTION_DOT":-1.041e-5,"MEAN_MOTION_DDOT":0},{"OBJECT_NAME":"STEP 2","OBJECT_ID":"1994-029A","EPOCH":"2026-03-09T19:35:47.124096","MEAN_MOTION":14.90069818,"ECCENTRICITY":0.0082455,"INCLINATION":81.9356,"RA_OF_ASC_NODE":275.268,"ARG_OF_PERICENTER":225.1907,"MEAN_ANOMALY":134.2589,"EPHEMERIS_TYPE":0,"CLASSIFICATION_TYPE":"U","NORAD_CAT_ID":23105,"ELEMENT_SET_NO":999,"REV_AT_EPOCH":70508,"BSTAR":0.00037800709,"MEAN_MOTION_DOT":3.917e-5,"MEAN_MOTION_DDOT":0}]
